SL-16 R/B               
1 22566U 93016B   26046.02183250 -.00000242  00000+0 -99946-4 0  9999
2 22566  71.0051 262.7932 0010558 344.9610  15.1197 14.15301579698962
COSMOS 2242             
1 22626U 93024A   26046.10265616  .00001812  00000+0  15698-3 0  9994
2 22626  82.5183 288.3220 0017180  26.1162 334.0923 14.96453602777013
SL-16 R/B               
1 22803U 93059B   26046.45553292 -.00000143  00000+0 -47075-4 0  9990
2 22803  70.9890  58.0143 0019401 247.2090 112.6984 14.17227966676386
ARIANE 40 R/B           
1 22830U 93061H   26046.14323493  .00000175  00000+0  80015-4 0  9991
2 22830  98.4965 115.4703 0010415 357.3689   2.7439 14.32848522690875
COSMOS 2278             
1 23087U 94023A   26046.46110728  .00000105  00000+0  79704-4 0  9991
2 23087  71.0504 221.6022 0006936  56.6228 303.5557 14.14364002641663
SL-16 R/B               
1 23088U 94023B   26046.51766367  .00000336  00000+0  19806-3 0  9996
2 23088  70.9994 117.4538 0004679 306.6568  53.4124 14.15006622642952
SL-16 R/B               
1 23343U 94074B   26046.06614027  .00000453  00000+0  67387-4 0  9999
2 23343  97.7140  77.7968 0005295 302.2193 111.6624 14.79380133683906
SL-16 R/B               
1 23405U 94077B   26046.36659442  .00000323  00000+0  18975-3 0  9998
2 23405  70.9826  39.4512 0004010 231.7333 128.3430 14.15561322613077
ARIANE 40+ R/B          
1 23561U 95021B   26046.23190875  .00000365  00000+0  13023-3 0  9992
2 23561  98.4546 118.0136 0006463 199.5975 228.2917 14.39755916616014
SL-16 R/B               
1 23705U 95058B   26046.51380769  .00000038  00000+0  43869-4 0  9995
2 23705  71.0197 226.8114 0011664 163.7027 196.4473 14.15495852564713
SL-16 R/B               
1 24298U 96051B   26046.50315428  .00000113  00000+0  87758-4 0  9995
2 24298  70.7569 222.1983 0016972 179.5342 180.5796 14.12409440518519
ORBVIEW 2 (SEASTAR)     
1 24883U 97037A   26046.46159647  .00000391  00000+0  15217-3 0  9992
2 24883  98.8527 210.1894 0003161 116.9628 243.1880 14.35477897505286
