CCSDS_OMM_VERS = 2.0
CREATION_DATE  = 
ORIGINATOR     = 

OBJECT_NAME    = SL-16 R/B
OBJECT_ID      = 1993-016B
CENTER_NAME    = EARTH
REF_FRAME      = TEME
TIME_SYSTEM    = UTC
MEAN_ELEMENT_THEORY = SGP/SGP4

EPOCH          = 2026-02-15T00:31:26.328000
MEAN_MOTION    = 14.15301579
ECCENTRICITY   = .00105588
INCLINATION    = 71.0051
RA_OF_ASC_NODE = 262.7932
ARG_OF_PERICENTER = 344.9610
MEAN_ANOMALY   = 15.1197

EPHEMERIS_TYPE = 0
CLASSIFICATION_TYPE = U
NORAD_CAT_ID   = 22566
ELEMENT_SET_NO = 999
REV_AT_EPOCH   = 69896
BSTAR          = -.99946434E-4
MEAN_MOTION_DOT = -.242E-5
MEAN_MOTION_DDOT = 0

CCSDS_OMM_VERS = 2.0
CREATION_DATE  = 
ORIGINATOR     = 

OBJECT_NAME    = COSMOS 2242
OBJECT_ID      = 1993-024A
CENTER_NAME    = EARTH
REF_FRAME      = TEME
TIME_SYSTEM    = UTC
MEAN_ELEMENT_THEORY = SGP/SGP4

EPOCH          = 2026-02-15T02:27:49.492224
MEAN_MOTION    = 14.96453602
ECCENTRICITY   = .00171806
INCLINATION    = 82.5183
RA_OF_ASC_NODE = 288.3220
ARG_OF_PERICENTER = 26.1162
MEAN_ANOMALY   = 334.0923

EPHEMERIS_TYPE = 0
CLASSIFICATION_TYPE = U
NORAD_CAT_ID   = 22626
ELEMENT_SET_NO = 999
REV_AT_EPOCH   = 77701
BSTAR          = .15698105E-3
MEAN_MOTION_DOT = .1812E-4
MEAN_MOTION_DDOT = 0

CCSDS_OMM_VERS = 2.0
CREATION_DATE  = 
ORIGINATOR     = 

OBJECT_NAME    = SL-16 R/B
OBJECT_ID      = 1993-059B
CENTER_NAME    = EARTH
REF_FRAME      = TEME
TIME_SYSTEM    = UTC
MEAN_ELEMENT_THEORY = SGP/SGP4

EPOCH          = 2026-02-15T10:55:58.044288
MEAN_MOTION    = 14.17227966
ECCENTRICITY   = .0019401
INCLINATION    = 70.9890
RA_OF_ASC_NODE = 58.0143
ARG_OF_PERICENTER = 247.2090
MEAN_ANOMALY   = 112.6984

EPHEMERIS_TYPE = 0
CLASSIFICATION_TYPE = U
NORAD_CAT_ID   = 22803
ELEMENT_SET_NO = 999
REV_AT_EPOCH   = 67638
BSTAR          = -.47075E-4
MEAN_MOTION_DOT = -.143E-5
MEAN_MOTION_DDOT = 0

CCSDS_OMM_VERS = 2.0
CREATION_DATE  = 
ORIGINATOR     = 

OBJECT_NAME    = ARIANE 40 R/B
OBJECT_ID      = 1993-061H
CENTER_NAME    = EARTH
REF_FRAME      = TEME
TIME_SYSTEM    = UTC
MEAN_ELEMENT_THEORY = SGP/SGP4

EPOCH          = 2026-02-15T03:26:15.497952
MEAN_MOTION    = 14.32848522
ECCENTRICITY   = .0010415
INCLINATION    = 98.4965
RA_OF_ASC_NODE = 115.4703
ARG_OF_PERICENTER = 357.3689
MEAN_ANOMALY   = 2.7439

EPHEMERIS_TYPE = 0
CLASSIFICATION_TYPE = U
NORAD_CAT_ID   = 22830
ELEMENT_SET_NO = 999
REV_AT_EPOCH   = 69087
BSTAR          = .80014875E-4
MEAN_MOTION_DOT = .175E-5
MEAN_MOTION_DDOT = 0

CCSDS_OMM_VERS = 2.0
CREATION_DATE  = 
ORIGINATOR     = 

OBJECT_NAME    = COSMOS 2278
OBJECT_ID      = 1994-023A
CENTER_NAME    = EARTH
REF_FRAME      = TEME
TIME_SYSTEM    = UTC
MEAN_ELEMENT_THEORY = SGP/SGP4

EPOCH          = 2026-02-15T11:03:59.668992
MEAN_MOTION    = 14.14364002
ECCENTRICITY   = .0006936
INCLINATION    = 71.0504
RA_OF_ASC_NODE = 221.6022
ARG_OF_PERICENTER = 56.6228
MEAN_ANOMALY   = 303.5557

EPHEMERIS_TYPE = 0
CLASSIFICATION_TYPE = U
NORAD_CAT_ID   = 23087
ELEMENT_SET_NO = 999
REV_AT_EPOCH   = 64166
BSTAR          = .79704E-4
MEAN_MOTION_DOT = .105E-5
MEAN_MOTION_DDOT = 0

CCSDS_OMM_VERS = 2.0
CREATION_DATE  = 
ORIGINATOR     = 

OBJECT_NAME    = SL-16 R/B
OBJECT_ID      = 1994-023B
CENTER_NAME    = EARTH
REF_FRAME      = TEME
TIME_SYSTEM    = UTC
MEAN_ELEMENT_THEORY = SGP/SGP4

EPOCH          = 2026-02-15T12:25:26.141088
MEAN_MOTION    = 14.15006622
ECCENTRICITY   = .0004679
INCLINATION    = 70.9994
RA_OF_ASC_NODE = 117.4538
ARG_OF_PERICENTER = 306.6568
MEAN_ANOMALY   = 53.4124

EPHEMERIS_TYPE = 0
CLASSIFICATION_TYPE = U
NORAD_CAT_ID   = 23088
ELEMENT_SET_NO = 999
REV_AT_EPOCH   = 64295
BSTAR          = .19806E-3
MEAN_MOTION_DOT = .336E-5
MEAN_MOTION_DDOT = 0

CCSDS_OMM_VERS = 2.0
CREATION_DATE  = 
ORIGINATOR     = 

OBJECT_NAME    = SL-16 R/B
OBJECT_ID      = 1994-074B
CENTER_NAME    = EARTH
REF_FRAME      = TEME
TIME_SYSTEM    = UTC
MEAN_ELEMENT_THEORY = SGP/SGP4

EPOCH          = 2026-02-15T01:35:14.519328
MEAN_MOTION    = 14.79380133
ECCENTRICITY   = .00052955
INCLINATION    = 97.7140
RA_OF_ASC_NODE = 77.7968
ARG_OF_PERICENTER = 302.2193
MEAN_ANOMALY   = 111.6624

EPHEMERIS_TYPE = 0
CLASSIFICATION_TYPE = U
NORAD_CAT_ID   = 23343
ELEMENT_SET_NO = 999
REV_AT_EPOCH   = 68390
BSTAR          = .67386702E-4
MEAN_MOTION_DOT = .453E-5
MEAN_MOTION_DDOT = 0

CCSDS_OMM_VERS = 2.0
CREATION_DATE  = 
ORIGINATOR     = 

OBJECT_NAME    = SL-16 R/B
OBJECT_ID      = 1994-077B
CENTER_NAME    = EARTH
REF_FRAME      = TEME
TIME_SYSTEM    = UTC
MEAN_ELEMENT_THEORY = SGP/SGP4

EPOCH          = 2026-02-15T08:47:53.757888
MEAN_MOTION    = 14.15561322
ECCENTRICITY   = .000401
INCLINATION    = 70.9826
RA_OF_ASC_NODE = 39.4512
ARG_OF_PERICENTER = 231.7333
MEAN_ANOMALY   = 128.3430

EPHEMERIS_TYPE = 0
CLASSIFICATION_TYPE = U
NORAD_CAT_ID   = 23405
ELEMENT_SET_NO = 999
REV_AT_EPOCH   = 61307
BSTAR          = .18975E-3
MEAN_MOTION_DOT = .323E-5
MEAN_MOTION_DDOT = 0

CCSDS_OMM_VERS = 2.0
CREATION_DATE  = 
ORIGINATOR     = 

OBJECT_NAME    = ARIANE 40+ R/B
OBJECT_ID      = 1995-021B
CENTER_NAME    = EARTH
REF_FRAME      = TEME
TIME_SYSTEM    = UTC
MEAN_ELEMENT_THEORY = SGP/SGP4

EPOCH          = 2026-02-15T05:33:56.916000
MEAN_MOTION    = 14.39755916
ECCENTRICITY   = .0006463
INCLINATION    = 98.4546
RA_OF_ASC_NODE = 118.0136
ARG_OF_PERICENTER = 199.5975
MEAN_ANOMALY   = 228.2917

EPHEMERIS_TYPE = 0
CLASSIFICATION_TYPE = U
NORAD_CAT_ID   = 23561
ELEMENT_SET_NO = 999
REV_AT_EPOCH   = 61601
BSTAR          = .13023E-3
MEAN_MOTION_DOT = .365E-5
MEAN_MOTION_DDOT = 0

CCSDS_OMM_VERS = 2.0
CREATION_DATE  = 
ORIGINATOR     = 

OBJECT_NAME    = SL-16 R/B
OBJECT_ID      = 1995-058B
CENTER_NAME    = EARTH
REF_FRAME      = TEME
TIME_SYSTEM    = UTC
MEAN_ELEMENT_THEORY = SGP/SGP4

EPOCH          = 2026-02-15T12:19:52.984416
MEAN_MOTION    = 14.15495852
ECCENTRICITY   = .0011664
INCLINATION    = 71.0197
RA_OF_ASC_NODE = 226.8114
ARG_OF_PERICENTER = 163.7027
MEAN_ANOMALY   = 196.4473

EPHEMERIS_TYPE = 0
CLASSIFICATION_TYPE = U
NORAD_CAT_ID   = 23705
ELEMENT_SET_NO = 999
REV_AT_EPOCH   = 56471
BSTAR          = .43869E-4
MEAN_MOTION_DOT = .38E-6
MEAN_MOTION_DDOT = 0

CCSDS_OMM_VERS = 2.0
CREATION_DATE  = 
ORIGINATOR     = 

OBJECT_NAME    = SL-16 R/B
OBJECT_ID      = 1996-051B
CENTER_NAME    = EARTH
REF_FRAME      = TEME
TIME_SYSTEM    = UTC
MEAN_ELEMENT_THEORY = SGP/SGP4

EPOCH          = 2026-02-15T12:04:32.529792
MEAN_MOTION    = 14.12409440
ECCENTRICITY   = .0016972
INCLINATION    = 70.7569
RA_OF_ASC_NODE = 222.1983
ARG_OF_PERICENTER = 179.5342
MEAN_ANOMALY   = 180.5796

EPHEMERIS_TYPE = 0
CLASSIFICATION_TYPE = U
NORAD_CAT_ID   = 24298
ELEMENT_SET_NO = 999
REV_AT_EPOCH   = 51851
BSTAR          = .87758E-4
MEAN_MOTION_DOT = .113E-5
MEAN_MOTION_DDOT = 0

CCSDS_OMM_VERS = 2.0
CREATION_DATE  = 
ORIGINATOR     = 

OBJECT_NAME    = ORBVIEW 2 (SEASTAR)
OBJECT_ID      = 1997-037A
CENTER_NAME    = EARTH
REF_FRAME      = TEME
TIME_SYSTEM    = UTC
MEAN_ELEMENT_THEORY = SGP/SGP4

EPOCH          = 2026-02-15T11:04:41.935008
MEAN_MOTION    = 14.35477897
ECCENTRICITY   = .0003161
INCLINATION    = 98.8527
RA_OF_ASC_NODE = 210.1894
ARG_OF_PERICENTER = 116.9628
MEAN_ANOMALY   = 243.1880

EPHEMERIS_TYPE = 0
CLASSIFICATION_TYPE = U
NORAD_CAT_ID   = 24883
ELEMENT_SET_NO = 999
REV_AT_EPOCH   = 50528
BSTAR          = .15217E-3
MEAN_MOTION_DOT = .391E-5
MEAN_MOTION_DDOT = 0

